[{"OBJECT_NAME":"IRIDIUM 124","OBJECT_ID":"2017-039H","EPOCH":"2026-03-09T23:29:37.068864","MEAN_MOTION":14.432748,"ECCENTRICITY":0.0002084,"INCLINATION":86.4531,"RA_OF_ASC_NODE":331.8553,"ARG_OF_PERICENTER":84.6213,"MEAN_ANOMALY":275.5226,"EPHEMERIS_TYPE":0,"CLASSIFICATION_TYPE":"U","NORAD_CAT_ID":42810,"ELEMENT_SET_NO":999,"REV_AT_EPOCH":46080,"BSTAR":0.00013794234,"MEAN_MOTION_DOT":4.84e-6,"MEAN_MOTION_DDOT":0},{"OBJECT_NAME":"CZ-6A DEB","OBJECT_ID":"2022-151GH","EPOCH":"2026-03-09T02:27:51.955488","MEAN_MOTION":14.33885526,"ECCENTRICITY":0.00830798,"INCLINATION":98.8871,"RA_OF_ASC_NODE":122.44,"ARG_OF_PERICENTER":65.2945,"MEAN_ANOMALY":295.6859,"EPHEMERIS_TYPE":0,"CLASSIFICATION_TYPE":"U","NORAD_CAT_ID":54457,"ELEMENT_SET_NO":999,"REV_AT_EPOCH":17279,"BSTAR":0.0015311968,"MEAN_MOTION_DOT":4.389e-5,"MEAN_MOTION_DDOT":0}]
